{"type": "FeatureCollection", "features": [ {"type": "Feature", "properties": {"norad_id": 43648, "name": "BEIDOU-3 M15 (C34)", "group": "gnss", "lat": 32.82705446177768, "lon": -26.250842436832503, "alt_km": 21513.43844208759, "timestamp": "2025-12-24T16:52:41.773884+00:00", "meta": {"OBJECT_NAME": "BEIDOU-3 M15 (C34)", "OBJECT_ID": "2018-078B", "EPOCH": "2025-12-24T02:29:34.317888", "MEAN_MOTION": 1.86232361, "ECCENTRICITY": 0.0004049, "INCLINATION": 54.2473, "RA_OF_ASC_NODE": 306.125, "ARG_OF_PERICENTER": 19.767, "MEAN_ANOMALY": 340.256, "EPHEMERIS_TYPE": 0, "CLASSIFICATION_TYPE": "U", "NORAD_CAT_ID": 43648, "ELEMENT_SET_NO": 999, "REV_AT_EPOCH": 4891, "BSTAR": 0, "MEAN_MOTION_DOT": -5.2e-07, "MEAN_MOTION_DDOT": 0}, "tle": {"line1": "1 43648U 18078B   25358.10386942 -.00000052  00000+0  00000+0 0  9991", "line2": "2 43648  54.2473 306.1250 0004049  19.7670 340.2560  1.86232361 48910"}}, "geometry": {"type": "Point", "coordinates": [-26.250842436832503, 32.82705446177768]}}, {"type": "Feature", "properties": {"norad_id": 43683, "name": "BEIDOU-3 G1 (C59)", "group": "gnss", "lat": 1.0919964156751596, "lon": 126.57479901086494, "alt_km": 35781.56593470569, "timestamp": "2025-12-24T16:52:41.773898+00:00", "meta": {"OBJECT_NAME": "BEIDOU-3 G1 (C59)", "OBJECT_ID": "2018-085A", "EPOCH": "2025-12-24T06:55:03.171360", "MEAN_MOTION": 1.00266915, "ECCENTRICITY": 0.00014588, "INCLINATION": 2.635, "RA_OF_ASC_NODE": 102.6249, "ARG_OF_PERICENTER": 43.7654, "MEAN_ANOMALY": 190.4043, "EPHEMERIS_TYPE": 0, "CLASSIFICATION_TYPE": "U", "NORAD_CAT_ID": 43683, "ELEMENT_SET_NO": 999, "REV_AT_EPOCH": 2630, "BSTAR": 0, "MEAN_MOTION_DOT": -2.59e-06, "MEAN_MOTION_DDOT": 0}, "tle": {"line1": "1 43683U 18085A   25358.28823115 -.00000259  00000+0  00000+0 0  9994", "line2": "2 43683   2.6350 102.6249 0001458  43.7654 190.4043  1.00266915 26305"}}, "geometry": {"type": "Point", "coordinates": [126.57479901086494, 1.0919964156751596]}}, {"type": "Feature", "properties": {"norad_id": 43687, "name": "COSMOS 2529 (757)", "group": "gnss", "lat": 55.539948987871114, "lon": -116.89820784078992, "alt_km": 19141.120588873113, "timestamp": "2025-12-24T16:52:41.773915+00:00", "meta": {"OBJECT_NAME": "COSMOS 2529 (757)", "OBJECT_ID": "2018-086A", "EPOCH": "2025-12-23T05:01:04.327104", "MEAN_MOTION": 2.13102131, "ECCENTRICITY": 0.0006897, "INCLINATION": 64.2927, "RA_OF_ASC_NODE": 198.5346, "ARG_OF_PERICENTER": 253.659, "MEAN_ANOMALY": 106.3281, "EPHEMERIS_TYPE": 0, "CLASSIFICATION_TYPE": "U", "NORAD_CAT_ID": 43687, "ELEMENT_SET_NO": 999, "REV_AT_EPOCH": 5553, "BSTAR": 0, "MEAN_MOTION_DOT": 9.5e-07, "MEAN_MOTION_DDOT": 0}, "tle": {"line1": "1 43687U 18086A   25357.20907786  .00000095  00000+0  00000+0 0  9994", "line2": "2 43687  64.2927 198.5346 0006897 253.6590 106.3281  2.13102131 55539"}}, "geometry": {"type": "Point", "coordinates": [-116.89820784078992, 55.539948987871114]}}, {"type": "Feature", "properties": {"norad_id": 43706, "name": "BEIDOU-3 M17 (C36)", "group": "gnss", "lat": -47.04931472679509, "lon": 137.2866022458689, "alt_km": 21517.124226655265, "timestamp": "2025-12-24T16:52:41.773929+00:00", "meta": {"OBJECT_NAME": "BEIDOU-3 M17 (C36)", "OBJECT_ID": "2018-093A", "EPOCH": "2025-12-22T11:03:17.644896", "MEAN_MOTION": 1.86228432, "ECCENTRICITY": 0.00060427, "INCLINATION": 54.173, "RA_OF_ASC_NODE": 188.2918, "ARG_OF_PERICENTER": 307.405, "MEAN_ANOMALY": 284.4943, "EPHEMERIS_TYPE": 0, "CLASSIFICATION_TYPE": "U", "NORAD_CAT_ID": 43706, "ELEMENT_SET_NO": 999, "REV_AT_EPOCH": 4824, "BSTAR": 0, "MEAN_MOTION_DOT": 9.4e-07, "MEAN_MOTION_DDOT": 0}, "tle": {"line1": "1 43706U 18093A   25356.46062089  .00000094  00000+0  00000+0 0  9998", "line2": "2 43706  54.1730 188.2918 0006042 307.4050 284.4943  1.86228432 48248"}}, "geometry": {"type": "Point", "coordinates": [137.2866022458689, -47.04931472679509]}}, {"type": "Feature", "properties": {"norad_id": 43707, "name": "BEIDOU-3 M18 (C37)", "group": "gnss", "lat": 22.586055294347727, "lon": -154.2938447080242, "alt_km": 21511.560573962, "timestamp": "2025-12-24T16:52:41.773941+00:00", "meta": {"OBJECT_NAME": "BEIDOU-3 M18 (C37)", "OBJECT_ID": "2018-093B", "EPOCH": "2025-12-23T01:12:21.238848", "MEAN_MOTION": 1.86226616, "ECCENTRICITY": 0.0006147, "INCLINATION": 54.1741, "RA_OF_ASC_NODE": 188.2636, "ARG_OF_PERICENTER": 354.1254, "MEAN_ANOMALY": 5.9078, "EPHEMERIS_TYPE": 0, "CLASSIFICATION_TYPE": "U", "NORAD_CAT_ID": 43707, "ELEMENT_SET_NO": 999, "REV_AT_EPOCH": 4825, "BSTAR": 0, "MEAN_MOTION_DOT": 9.6e-07, "MEAN_MOTION_DDOT": 0}, "tle": {"line1": "1 43707U 18093B   25357.05024582  .00000096  00000+0  00000+0 0  9993", "line2": "2 43707  54.1741 188.2636 0006147 354.1254   5.9078  1.86226616 48257"}}, "geometry": {"type": "Point", "coordinates": [-154.2938447080242, 22.586055294347727]}}, {"type": "Feature", "properties": {"norad_id": 43873, "name": "GPS BIII-1  (PRN 04)", "group": "gnss", "lat": 31.31733200372505, "lon": -105.54738255667192, "alt_km": 20121.056604197092, "timestamp": "2025-12-24T16:52:41.773953+00:00", "meta": {"OBJECT_NAME": "GPS BIII-1  (PRN 04)", "OBJECT_ID": "2018-109A", "EPOCH": "2025-12-24T00:11:38.701248", "MEAN_MOTION": 2.00553951, "ECCENTRICITY": 0.00376154, "INCLINATION": 55.5728, "RA_OF_ASC_NODE": 99.1026, "ARG_OF_PERICENTER": 195.5466, "MEAN_ANOMALY": 163.7899, "EPHEMERIS_TYPE": 0, "CLASSIFICATION_TYPE": "U", "NORAD_CAT_ID": 43873, "ELEMENT_SET_NO": 999, "REV_AT_EPOCH": 5155, "BSTAR": 0, "MEAN_MOTION_DOT": 1.5e-07, "MEAN_MOTION_DDOT": 0}, "tle": {"line1": "1 43873U 18109A   25358.00808682  .00000015  00000+0  00000+0 0  9993", "line2": "2 43873  55.5728  99.1026 0037615 195.5466 163.7899  2.00553951 51553"}}, "geometry": {"type": "Point", "coordinates": [-105.54738255667192, 31.31733200372505]}}, {"type": "Feature", "properties": {"norad_id": 44231, "name": "BEIDOU-2 G8 (C01)", "group": "gnss", "lat": 1.4279940538795015, "lon": 131.17561999478488, "alt_km": 35817.34241668002, "timestamp": "2025-12-24T16:52:41.773967+00:00", "meta": {"OBJECT_NAME": "BEIDOU-2 G8 (C01)", "OBJECT_ID": "2019-027A", "EPOCH": "2025-12-24T06:56:18.050784", "MEAN_MOTION": 1.00274864, "ECCENTRICITY": 0.00083051, "INCLINATION": 1.6893, "RA_OF_ASC_NODE": 74.7354, "ARG_OF_PERICENTER": 259.2231, "MEAN_ANOMALY": 7.6859, "EPHEMERIS_TYPE": 0, "CLASSIFICATION_TYPE": "U", "NORAD_CAT_ID": 44231, "ELEMENT_SET_NO": 999, "REV_AT_EPOCH": 2432, "BSTAR": 0, "MEAN_MOTION_DOT": -2.26e-06, "MEAN_MOTION_DDOT": 0}, "tle": {"line1": "1 44231U 19027A   25358.28909781 -.00000226  00000+0  00000+0 0  9999", "line2": "2 44231   1.6893  74.7354 0008305 259.2231   7.6859  1.00274864 24321"}}, "geometry": {"type": "Point", "coordinates": [131.17561999478488, 1.4279940538795015]}}, {"type": "Feature", "properties": {"norad_id": 44299, "name": "COSMOS 2534 (758)", "group": "gnss", "lat": -18.494331871411205, "lon": 27.74063200191967, "alt_km": 19130.037489881182, "timestamp": "2025-12-24T16:52:41.773978+00:00", "meta": {"OBJECT_NAME": "COSMOS 2534 (758)", "OBJECT_ID": "2019-030A", "EPOCH": "2025-12-24T03:52:14.937600", "MEAN_MOTION": 2.13102191, "ECCENTRICITY": 0.00085971, "INCLINATION": 64.3662, "RA_OF_ASC_NODE": 198.5079, "ARG_OF_PERICENTER": 283.6548, "MEAN_ANOMALY": 221.2586, "EPHEMERIS_TYPE": 0, "CLASSIFICATION_TYPE": "U", "NORAD_CAT_ID": 44299, "ELEMENT_SET_NO": 999, "REV_AT_EPOCH": 5119, "BSTAR": 0, "MEAN_MOTION_DOT": 9.8e-07, "MEAN_MOTION_DDOT": 0}, "tle": {"line1": "1 44299U 19030A   25358.16128400  .00000098  00000+0  00000+0 0  9991", "line2": "2 44299  64.3662 198.5079 0008597 283.6548 221.2586  2.13102191 51193"}}, "geometry": {"type": "Point", "coordinates": [27.74063200191967, -18.494331871411205]}}, {"type": "Feature", "properties": {"norad_id": 44337, "name": "BEIDOU-3 IGSO-2 (C39)", "group": "gnss", "lat": -41.58610976867534, "lon": 122.2843424981341, "alt_km": 35829.815838024035, "timestamp": "2025-12-24T16:52:41.773990+00:00", "meta": {"OBJECT_NAME": "BEIDOU-3 IGSO-2 (C39)", "OBJECT_ID": "2019-035A", "EPOCH": "2025-12-23T20:34:24.431808", "MEAN_MOTION": 1.00267916, "ECCENTRICITY": 0.00378021, "INCLINATION": 55.2291, "RA_OF_ASC_NODE": 160.4037, "ARG_OF_PERICENTER": 202.4581, "MEAN_ANOMALY": 157.7229, "EPHEMERIS_TYPE": 0, "CLASSIFICATION_TYPE": "U", "NORAD_CAT_ID": 44337, "ELEMENT_SET_NO": 999, "REV_AT_EPOCH": 2391, "BSTAR": 0, "MEAN_MOTION_DOT": -7.4e-07, "MEAN_MOTION_DDOT": 0}, "tle": {"line1": "1 44337U 19035A   25357.85722722 -.00000074  00000+0  00000+0 0  9996", "line2": "2 44337  55.2291 160.4037 0037802 202.4581 157.7229  1.00267916 23910"}}, "geometry": {"type": "Point", "coordinates": [122.2843424981341, -41.58610976867534]}}, {"type": "Feature", "properties": {"norad_id": 44506, "name": "GPS BIII-2  (PRN 18)", "group": "gnss", "lat": 30.961103845652627, "lon": 2.2142205021338492, "alt_km": 20321.993999519906, "timestamp": "2025-12-24T16:52:41.774002+00:00", "meta": {"OBJECT_NAME": "GPS BIII-2  (PRN 18)", "OBJECT_ID": "2019-056A", "EPOCH": "2025-12-23T09:23:28.795200", "MEAN_MOTION": 2.0056658, "ECCENTRICITY": 0.00577459, "INCLINATION": 55.7176, "RA_OF_ASC_NODE": 338.1305, "ARG_OF_PERICENTER": 198.6012, "MEAN_ANOMALY": 332.8304, "EPHEMERIS_TYPE": 0, "CLASSIFICATION_TYPE": "U", "NORAD_CAT_ID": 44506, "ELEMENT_SET_NO": 999, "REV_AT_EPOCH": 4654, "BSTAR": 0, "MEAN_MOTION_DOT": -6.4e-07, "MEAN_MOTION_DDOT": 0}, "tle": {"line1": "1 44506U 19056A   25357.39130550 -.00000064  00000+0  00000+0 0  9997", "line2": "2 44506  55.7176 338.1305 0057745 198.6012 332.8304  2.00566580 46544"}}, "geometry": {"type": "Point", "coordinates": [2.2142205021338492, 30.961103845652627]}}]}